NORAD_CAT_ID,OBJECT_NAME,OBJECT_TYPE,EPOCH,MEAN_MOTION,ECCENTRICITY,INCLINATION,RA_OF_ASC_NODE,ARG_OF_PERICENTER,MEAN_ANOMALY,BSTAR,MEAN_MOTION_DOT,MEAN_MOTION_DDOT,TLE_LINE0,TLE_LINE1,TLE_LINE2,SEMIMAJOR_AXIS,PERIOD,APOGEE,PERIGEE,DECAYED
56783.0,STARLINK-6357,PAYLOAD,2024-07-30 16:24:11,14.98332318,0.0002818,70.0017,4.5875,270.4131,89.6705,-5.5655e-06,-1.59e-06,0.0,0 STARLINK-6357,1 56783U 23078S   24212.68346223 -.00000159  00000-0 -55655-5 0  9992,2 56783  70.0017   4.5875 0002818 270.4131  89.6705 14.98332318 65246,6950.186,96.107,574.009,570.092,0.0
56783.0,STARLINK-6357,PAYLOAD,2024-07-31 13:13:56,14.9832659,0.000311,70.0019,2.4,269.3602,90.7201,-1.6655e-05,-2.92e-06,0.0,0 STARLINK-6357,1 56783U 23078S   24213.55134562 -.00000292  00000-0 -16655-4 0  9994,2 56783  70.0019   2.4000 0003110 269.3602  90.7201 14.98326590 65633,6950.203,96.107,574.23,569.907,0.0
56783.0,STARLINK-6357,PAYLOAD,2024-07-31 14:50:04,14.98326413,0.0003107,70.0017,2.2316,269.3939,90.6864,-2.2075e-05,-3.56e-06,0.0,0 STARLINK-6357,1 56783U 23078S   24213.61810599 -.00000356  00000-0 -22075-4 0  9996,2 56783  70.0017   2.2316 0003107 269.3939  90.6864 14.98326413 65388,6950.204,96.107,574.228,569.91,0.0
56783.0,STARLINK-6357,PAYLOAD,2024-07-31 19:38:28,14.9833183,0.0003038,70.0011,1.7257,269.0317,91.0494,-7.3148e-06,-1.8e-06,0.0,0 STARLINK-6357,1 56783U 23078S   24213.81838207 -.00000180  00000-0 -73148-5 0  9997,2 56783  70.0011   1.7257 0003038 269.0317  91.0494 14.98331830 65417,6950.187,96.107,574.164,569.941,0.0
56783.0,STARLINK-6357,PAYLOAD,2024-08-01 11:39:48,14.98319426,0.0003151,70.0013,0.0415,266.8091,93.2708,0.00029757,3.458e-05,0.0,0 STARLINK-6357,1 56783U 23078S   24214.48598070  .00003458  00000-0  29757-3 0  9996,2 56783  70.0013   0.0415 0003151 266.8091  93.2708 14.98319426 65517,6950.226,96.108,574.281,569.901,0.0
56783.0,STARLINK-6357,PAYLOAD,2024-08-01 19:40:28,14.98341408,0.0003127,70.0013,359.2001,267.2399,92.8402,0.00013481,1.516e-05,0.0,0 STARLINK-6357,1 56783U 23078S   24214.81976954  .00001516  00000-0  13481-3 0  9994,2 56783  70.0013 359.2001 0003127 267.2399  92.8402 14.98341408 65821,6950.158,96.106,574.196,569.849,0.0
56783.0,STARLINK-6357,PAYLOAD,2024-08-02 13:17:58,14.98318605,0.0003156,70.0008,357.3483,266.7458,93.334,-7.5925e-05,-9.99e-06,0.0,0 STARLINK-6357,1 56783U 23078S   24215.55415027 -.00000999  00000-0 -75925-4 0  9993,2 56783  70.0008 357.3483 0003156 266.7458  93.3340 14.98318605 65932,6950.228,96.108,574.287,569.9,0.0
56783.0,STARLINK-6357,PAYLOAD,2024-08-02 14:54:06,14.98317097,0.0003225,70.0012,357.1807,267.8703,92.2087,-9.0046e-05,-1.167e-05,0.0,0 STARLINK-6357,1 56783U 23078S   24215.62091213 -.00001167  00000-0 -90046-4 0  9997,2 56783  70.0012 357.1807 0003225 267.8703  92.2087 14.98317097 65689,6950.233,96.108,574.339,569.856,0.0
56783.0,STARLINK-6357,PAYLOAD,2024-08-02 19:42:30,14.9832193,0.0003209,70.0012,356.6768,269.4494,90.6297,-9.325e-05,-1.205e-05,0.0,0 STARLINK-6357,1 56783U 23078S   24215.82119044 -.00001205  00000-0 -93250-4 0  9995,2 56783  70.0012 356.6768 0003209 269.4494  90.6297 14.98321930 65716,6950.218,96.108,574.313,569.853,0.0
56783.0,STARLINK-6357,PAYLOAD,2024-08-03 02:07:03,14.98340338,0.0003189,70.0029,356.0008,278.9437,81.1361,-0.00061093,-7.377e-05,0.0,0 STARLINK-6357,1 56783U 23078S   24216.08823219 -.00007377  00000-0 -61093-3 0  9995,2 56783  70.0029 356.0008 0003189 278.9437  81.1361 14.98340338 66018,6950.161,96.106,574.242,569.81,0.0
56783.0,STARLINK-6357,PAYLOAD,2024-08-03 11:43:52,14.98320009,0.0003054,70.0021,354.9922,272.777,87.304,-0.0001778,-2.213e-05,0.0,0 STARLINK-6357,1 56783U 23078S   24216.48879956 -.00002213  00000-0 -17780-3 0  9996,2 56783  70.0021 354.9922 0003054 272.7770  87.3040 14.98320009 66076,6950.224,96.108,574.211,569.966,0.0
56783.0,STARLINK-6357,PAYLOAD,2024-08-03 14:56:08,14.98319691,0.0003176,70.0012,354.6567,271.299,88.7806,-0.00016888,-2.107e-05,0.0,0 STARLINK-6357,1 56783U 23078S   24216.62232005 -.00002107  00000-0 -16888-3 0  9990,2 56783  70.0012 354.6567 0003176 271.2990  88.7806 14.98319691 65834,6950.225,96.108,574.297,569.882,0.0
56783.0,STARLINK-6357,PAYLOAD,2024-08-03 19:44:32,14.9832549,0.000303,70.0016,354.1507,272.8221,87.2591,-8.9631e-05,-1.162e-05,0.0,0 STARLINK-6357,1 56783U 23078S   24216.82259532 -.00001162  00000-0 -89631-4 0  9993,2 56783  70.0016 354.1507 0003030 272.8221  87.2591 14.98325490 66122,6950.207,96.107,574.178,569.966,0.0
56783.0,STARLINK-6357,PAYLOAD,2024-08-04 02:09:03,14.98336509,0.0003146,70.0013,353.4787,274.949,85.131,-5.4549e-05,-7.44e-06,0.0,0 STARLINK-6357,1 56783U 23078S   24217.08962759 -.00000744  00000-0 -54549-4 0  9999,2 56783  70.0013 353.4787 0003146 274.9490  85.1310 14.98336509 66163,6950.173,96.107,574.224,569.851,0.0
56783.0,STARLINK-6357,PAYLOAD,2024-08-04 14:58:07,14.98335125,0.0003269,70.0013,352.1311,273.9701,86.1084,0.00030346,3.53e-05,0.0,0 STARLINK-6357,1 56783U 23078S   24217.62369796  .00003530  00000-0  30346-3 0  9993,2 56783  70.0013 352.1311 0003269 273.9701  86.1084 14.98335125 65983,6950.177,96.107,574.314,569.77,0.0
56783.0,STARLINK-6357,PAYLOAD,2024-08-04 19:46:30,14.98347667,0.0003062,70.0014,351.6259,272.1559,87.925,0.00041038,4.809e-05,0.0,0 STARLINK-6357,1 56783U 23078S   24217.82396565  .00004809  00000-0  41038-3 0  9999,2 56783  70.0014 351.6259 0003062 272.1559  87.9250 14.98347667 66273,6950.138,96.106,574.131,569.875,0.0
56783.0,STARLINK-6357,PAYLOAD,2024-08-05 11:47:52,14.98330108,0.0002994,70.0015,349.9438,276.1342,83.9475,0.00015508,1.758e-05,0.0,0 STARLINK-6357,1 56783U 23078S   24218.49158133  .00001758  00000-0  15508-3 0  9993,2 56783  70.0015 349.9438 0002994 276.1342  83.9475 14.98330108 66378,6950.193,96.107,574.138,569.977,0.0
56783.0,STARLINK-6357,PAYLOAD,2024-08-05 18:12:24,14.98331811,0.0002923,70.0029,349.2725,273.2722,86.8103,0.00011946,1.333e-05,0.0,0 STARLINK-6357,1 56783U 23078S   24218.75862052  .00001333  00000-0  11946-3 0  9995,2 56783  70.0029 349.2725 0002923 273.2722  86.8103 14.98331811 66155,6950.187,96.107,574.084,570.021,0.0
56783.0,STARLINK-6357,PAYLOAD,2024-08-06 02:13:05,14.98325192,0.0003211,70.0016,348.4278,275.2593,84.82,-8.4371e-05,-1.099e-05,0.0,0 STARLINK-6357,1 56783U 23078S   24219.09242912 -.00001099  00000-0 -84371-4 0  9994,2 56783  70.0016 348.4278 0003211 275.2593  84.8200 14.98325192 66469,6950.208,96.107,574.304,569.841,0.0
56783.0,STARLINK-6357,PAYLOAD,2024-08-06 13:26:02,14.9832924,0.0003144,70.0021,347.2498,274.0225,86.0575,-0.00026331,-3.233e-05,0.0,0 STARLINK-6357,1 56783U 23078S   24219.55975136 -.00003233  00000-0 -26331-3 0  9999,2 56783  70.0021 347.2498 0003144 274.0225  86.0575 14.98329240 66276,6950.195,96.107,574.245,569.875,0.0
56783.0,STARLINK-6357,PAYLOAD,2024-08-06 18:14:26,14.98332518,0.0002969,70.0025,346.7462,268.5447,91.5372,-0.00023098,-2.848e-05,0.0,0 STARLINK-6357,1 56783U 23078S   24219.76002800 -.00002848  00000-0 -23098-3 0  9999,2 56783  70.0025 346.7462 0002969 268.5447  91.5372 14.98332518 66305,6950.185,96.107,574.114,569.987,0.0
56783.0,STARLINK-6357,PAYLOAD,2024-08-07 11:51:54,14.98333515,0.0003278,70.0022,344.8947,270.6073,89.471,6.7969e-05,7.18e-06,0.0,0 STARLINK-6357,1 56783U 23078S   24220.49437600  .00000718  00000-0  67969-4 0  9999,2 56783  70.0022 344.8947 0003278 270.6073  89.4710 14.98333515 66672,6950.182,96.107,574.325,569.769,0.0
56783.0,STARLINK-6357,PAYLOAD,2024-08-07 18:16:25,14.98343891,0.0003267,70.0021,344.2207,270.2157,89.8628,0.00010109,1.114e-05,0.0,0 STARLINK-6357,1 56783U 23078S   24220.76140733  .00001114  00000-0  10109-3 0  9991,2 56783  70.0021 344.2207 0003267 270.2157  89.8628 14.98343891 66716,6950.15,96.106,574.286,569.744,0.0
56783.0,STARLINK-6357,PAYLOAD,2024-08-08 13:30:03,14.98323677,0.0003055,70.0031,342.2006,267.0041,93.0768,0.00011566,1.287e-05,0.0,0 STARLINK-6357,1 56783U 23078S   24221.56253908  .00001287  00000-0  11566-3 0  9998,2 56783  70.0031 342.2006 0003055 267.0041  93.0768 14.98323677 66579,6950.212,96.107,574.201,569.954,0.0
56783.0,STARLINK-6357,PAYLOAD,2024-08-08 18:18:27,14.98329403,0.0002879,70.0038,341.6968,262.2921,97.7911,0.0001151,1.281e-05,0.0,0 STARLINK-6357,1 56783U 23078S   24221.76281554  .00001281  00000-0  11510-3 0  9991,2 56783  70.0038 341.6968 0002879 262.2921  97.7911 14.98329403 66869,6950.195,96.107,574.061,570.059,0.0
56783.0,STARLINK-6357,PAYLOAD,2024-08-09 11:55:56,14.98330573,0.000304,70.0034,339.846,262.4649,97.6165,-9.7806e-05,-1.26e-05,0.0,0 STARLINK-6357,1 56783U 23078S   24222.49717940 -.00001260  00000-0 -97806-4 0  9997,2 56783  70.0034 339.8460 0003040 262.4649  97.6165 14.98330573 66715,6950.191,96.107,574.169,569.943,0.0
56783.0,STARLINK-6357,PAYLOAD,2024-08-09 18:20:27,14.98343115,0.0003608,70.0016,339.1717,270.8657,89.2089,4.0688e-05,3.93e-06,0.0,0 STARLINK-6357,1 56783U 23078S   24222.76420597  .00000393  00000-0  40688-4 0  9996,2 56783  70.0016 339.1717 0003608 270.8657  89.2089 14.98343115 67017,6950.152,96.106,574.525,569.51,0.0
56783.0,STARLINK-6357,PAYLOAD,2024-08-10 11:57:57,14.98323594,0.0003097,70.0024,337.3197,270.7205,89.3599,-4.3327e-05,-6.1e-06,0.0,0 STARLINK-6357,1 56783U 23078S   24223.49858141 -.00000610  00000-0 -43327-4 0  9994,2 56783  70.0024 337.3197 0003097 270.7205  89.3599 14.98323594 67126,6950.213,96.107,574.23,569.925,0.0
56783.0,STARLINK-6357,PAYLOAD,2024-08-10 13:34:05,14.98324091,0.0003122,70.0027,337.1518,274.6975,85.3827,-1.9145e-05,-3.21e-06,0.0,0 STARLINK-6357,1 56783U 23078S   24223.56534083 -.00000321  00000-0 -19145-4 0  9998,2 56783  70.0027 337.1518 0003122 274.6975  85.3827 14.98324091 66874,6950.211,96.107,574.246,569.906,0.0
56783.0,STARLINK-6357,PAYLOAD,2024-08-10 16:46:20,14.98335416,0.0002849,70.0025,336.8145,272.7153,87.368,0.00013289,1.493e-05,0.0,0 STARLINK-6357,1 56783U 23078S   24223.69885001  .00001493  00000-0  13289-3 0  9992,2 56783  70.0025 336.8145 0002849 272.7153  87.3680 14.98335416 67150,6950.176,96.107,574.021,570.061,0.0
